{
  "norad_id": 53912,
  "name": "STARLINK-5059",
  "history": [
    {
      "epoch": "2026-03-28T15:47:24.816768",
      "apogee_km": 540.6926312670112,
      "perigee_km": 538.8192658565404,
      "latitude_deg": 8.764779359829811,
      "longitude_deg": -5.639092480065301,
      "semi_major_axis_km": 6917.8929485617755,
      "eccentricity": 0.0001354,
      "inclination_deg": 53.2172,
      "raan_deg": 228.6098,
      "arg_perigee_deg": 95.283,
      "mean_anomaly_deg": 264.8317,
      "mean_motion_rev_day": 15.08835891
    }
  ]
}